ONEWEB-0674             
1 55833U 23029AP  25224.59908805 -.00000100  00000+0 -30542-3 0  9998
2 55833  87.9085 351.1455 0002357  96.7817 263.3581 13.14503062118870
ONEWEB-0675             
1 55834U 23029AQ  25224.63289438  .00000060  00000+0  11643-3 0  9992
2 55834  87.9248   6.3329 0001505  99.3070 260.8233 13.19726571118227
ONEWEB-0720             
1 55835U 23029AR  25224.62499665  .00000061  00000+0  12058-3 0  9999
2 55835  87.9245   6.3320 0001919  83.1003 277.0348 13.19724541118145
ONEWEB-0537             
1 56046U 23043A   25224.57093373  .00000043  00000+0  78849-4 0  9991
2 56046  87.9039 290.2786 0001859 101.9551 258.1788 13.16592549118350
ONEWEB-0538             
1 56047U 23043B   25224.56461113  .00000132  00000+0  31081-3 0  9997
2 56047  87.9030 290.2947 0001748  94.1825 265.9505 13.16594818118360
ONEWEB-0546             
1 56048U 23043C   25224.47594428  .00000148  00000+0  35382-3 0  9999
2 56048  87.9041 290.2912 0001885 117.4268 242.7055 13.16594347118345
ONEWEB-0547             
1 56049U 23043D   25224.48382242  .00000121  00000+0  26250-3 0  9995
2 56049  87.9259 305.5693 0001887  93.2139 266.9210 13.21825173117444
ONEWEB-0548             
1 56050U 23043E   25224.57727313 -.00000015  00000+0 -73746-4 0  9996
2 56050  87.9026 290.2993 0002494  98.2211 261.9203 13.16592246118356
